NORAD_CAT_ID,OBJECT_NAME,OBJECT_TYPE,EPOCH,MEAN_MOTION,ECCENTRICITY,INCLINATION,RA_OF_ASC_NODE,ARG_OF_PERICENTER,MEAN_ANOMALY,BSTAR,MEAN_MOTION_DOT,MEAN_MOTION_DDOT,TLE_LINE0,TLE_LINE1,TLE_LINE2,SEMIMAJOR_AXIS,PERIOD,APOGEE,PERIGEE,DECAYED
54161.0,STARLINK-5269,PAYLOAD,2024-04-12 10:13:47,15.08841022,0.0001235,53.2168,259.8731,84.5332,275.5801,0.00010646,1.407e-05,0.0,0 STARLINK-5269,1 54161U 22141E   24103.42624591  .00001407  00000-0  10646-3 0  9992,2 54161  53.2168 259.8731 0001235  84.5332 275.5801 15.08841022 80608,6917.877,95.437,540.597,538.888,0.0
54161.0,STARLINK-5269,PAYLOAD,2024-04-12 14:59:57,15.08835902,0.0001272,53.2174,258.9793,87.7793,272.3345,6.0388e-05,6.73e-06,0.0,0 STARLINK-5269,1 54161U 22141E   24103.62497131  .00000673  00000-0  60388-4 0  9995,2 54161  53.2174 258.9793 0001272  87.7793 272.3345 15.08835902 80631,6917.893,95.438,540.638,538.878,0.0
54161.0,STARLINK-5269,PAYLOAD,2024-04-13 14:50:44,15.08839411,0.0001676,53.2178,254.5193,86.4984,273.6199,8.5879e-05,1.079e-05,0.0,0 STARLINK-5269,1 54161U 22141E   24104.61856995  .00001079  00000-0  85879-4 0  9995,2 54161  53.2178 254.5193 0001676  86.4984 273.6199 15.08839411 80783,6917.882,95.438,540.907,538.588,0.0
54161.0,STARLINK-5269,PAYLOAD,2024-04-13 16:26:07,15.08842319,0.000125,53.2176,254.221,94.8084,265.3051,4.9601e-05,5.02e-06,0.0,0 STARLINK-5269,1 54161U 22141E   24104.68480790  .00000502  00000-0  49601-4 0  9991,2 54161  53.2176 254.2210 0001250  94.8084 265.3051 15.08842319 80797,6917.873,95.437,540.603,538.874,0.0
54161.0,STARLINK-5269,PAYLOAD,2024-04-14 16:16:54,15.08845498,0.0001391,53.2179,249.7606,93.3763,266.7389,0.00010657,1.409e-05,0.0,0 STARLINK-5269,1 54161U 22141E   24105.67840493  .00001409  00000-0  10657-3 0  9996,2 54161  53.2179 249.7606 0001391  93.3763 266.7389 15.08845498 80949,6917.864,95.437,540.691,538.766,0.0
54161.0,STARLINK-5269,PAYLOAD,2024-04-15 12:56:55,15.08843633,0.0001243,53.2172,245.8946,90.5281,269.5853,8.6664e-05,1.092e-05,0.0,0 STARLINK-5269,1 54161U 22141E   24106.53952594  .00001092  00000-0  86664-4 0  9998,2 54161  53.2172 245.8946 0001243  90.5281 269.5853 15.08843633 81077,6917.869,95.437,540.594,538.874,0.0
54161.0,STARLINK-5269,PAYLOAD,2024-04-15 14:32:18,15.08841323,0.0001453,53.2187,245.5968,104.4391,255.6762,7.7839e-05,9.51e-06,0.0,0 STARLINK-5269,1 54161U 22141E   24106.60576699  .00000951  00000-0  77839-4 0  9991,2 54161  53.2187 245.5968 0001453 104.4391 255.6762 15.08841323 81084,6917.876,95.437,540.747,538.736,0.0
54161.0,STARLINK-5269,PAYLOAD,2024-04-15 19:18:27,15.08841597,0.0001471,53.2188,244.7052,105.8254,254.29,7.415e-05,8.92e-06,0.0,0 STARLINK-5269,1 54161U 22141E   24106.80448671  .00000892  00000-0  74150-4 0  9998,2 54161  53.2188 244.7052 0001471 105.8254 254.2900 15.08841597 81119,6917.876,95.437,540.758,538.723,0.0
54161.0,STARLINK-5269,PAYLOAD,2024-04-16 14:23:05,15.08844502,0.0001582,53.2178,241.1385,103.3608,256.7561,8.9571e-05,1.138e-05,0.0,0 STARLINK-5269,1 54161U 22141E   24107.59936555  .00001138  00000-0  89571-4 0  9995,2 54161  53.2178 241.1385 0001582 103.3608 256.7561 15.08844502 81239,6917.867,95.437,540.826,538.637,0.0
54161.0,STARLINK-5269,PAYLOAD,2024-04-16 15:58:27,15.08852849,0.0001394,53.2172,240.8439,94.9302,265.1849,-6.5252e-06,-3.92e-06,0.0,0 STARLINK-5269,1 54161U 22141E   24107.66560185 -.00000392  00000-0 -65252-5 0  9999,2 54161  53.2172 240.8439 0001394  94.9302 265.1849 15.08852849 81243,6917.841,95.437,540.67,538.742,0.0
54161.0,STARLINK-5269,PAYLOAD,2024-04-17 12:38:29,15.08834292,0.0001157,53.2158,236.9749,73.1118,287.0001,5.0487e-06,-2.07e-06,0.0,0 STARLINK-5269,1 54161U 22141E   24108.52673167 -.00000207  00000-0  50487-5 0  9998,2 54161  53.2158 236.9749 0001157  73.1118 287.0001 15.08834292 81377,6917.898,95.438,540.563,538.962,0.0
54161.0,STARLINK-5269,PAYLOAD,2024-04-17 14:13:52,15.08832712,0.0001137,53.2159,236.6794,83.4174,276.6947,2.8038e-06,-2.43e-06,0.0,0 STARLINK-5269,1 54161U 22141E   24108.59297242 -.00000243  00000-0  28038-5 0  9998,2 54161  53.2159 236.6794 0001137  83.4174 276.6947 15.08832712 81388,6917.903,95.438,540.554,538.981,0.0
54161.0,STARLINK-5269,PAYLOAD,2024-04-18 14:04:40,15.08836372,0.0001423,53.216,232.2166,105.8918,254.2231,5.5282e-05,5.92e-06,0.0,0 STARLINK-5269,1 54161U 22141E   24109.58657487  .00000592  00000-0  55282-4 0  9995,2 54161  53.2160 232.2166 0001423 105.8918 254.2231 15.08836372 81539,6917.891,95.438,540.741,538.772,0.0
54161.0,STARLINK-5269,PAYLOAD,2024-04-18 15:40:03,15.08840509,0.0001334,53.2162,231.9192,82.304,277.8103,0.00013955,1.934e-05,0.0,0 STARLINK-5269,1 54161U 22141E   24109.65281430  .00001934  00000-0  13955-3 0  9995,2 54161  53.2162 231.9192 0001334  82.3040 277.8103 15.08840509 81549,6917.879,95.438,540.667,538.821,0.0
54161.0,STARLINK-5269,PAYLOAD,2024-04-19 12:20:05,15.08830568,0.000177,53.2174,228.0572,64.7524,295.3652,0.00022391,3.276e-05,0.0,0 STARLINK-5269,1 54161U 22141E   24110.51394679  .00003276  00000-0  22391-3 0  9997,2 54161  53.2174 228.0572 0001770  64.7524 295.3652 15.08830568 81678,6917.909,95.438,540.999,538.55,0.0
54161.0,STARLINK-5269,PAYLOAD,2024-04-19 13:55:28,15.08831027,0.0001758,53.2173,227.7577,64.354,295.7634,0.00021759,3.176e-05,0.0,0 STARLINK-5269,1 54161U 22141E   24110.58018667  .00003176  00000-0  21759-3 0  9990,2 54161  53.2173 227.7577 0001758  64.3540 295.7634 15.08831027 81684,6917.908,95.438,540.989,538.557,0.0
54161.0,STARLINK-5269,PAYLOAD,2024-04-19 15:30:50,15.0883622,0.0001584,53.2181,227.4645,83.8986,276.2187,0.00028491,4.249e-05,0.0,0 STARLINK-5269,1 54161U 22141E   24110.64642350  .00004249  00000-0  28491-3 0  9991,2 54161  53.2181 227.4645 0001584  83.8986 276.2187 15.08836220 81691,6917.892,95.438,540.853,538.661,0.0
54161.0,STARLINK-5269,PAYLOAD,2024-04-20 12:10:51,15.08845754,0.0001709,53.2187,223.5925,72.3043,287.8136,0.00016401,2.324e-05,0.0,0 STARLINK-5269,1 54161U 22141E   24111.50753936  .00002324  00000-0  16401-3 0  9990,2 54161  53.2187 223.5925 0001709  72.3043 287.8136 15.08845754 81820,6917.863,95.437,540.91,538.546,0.0
54161.0,STARLINK-5269,PAYLOAD,2024-04-20 13:46:14,15.08848797,0.0001846,53.2171,223.2935,66.8762,293.2424,0.0001362,1.881e-05,0.0,0 STARLINK-5269,1 54161U 22141E   24111.57377651  .00001881  00000-0  13620-3 0  9990,2 54161  53.2171 223.2935 0001846  66.8762 293.2424 15.08848797 81831,6917.854,95.437,540.996,538.441,0.0
54161.0,STARLINK-5269,PAYLOAD,2024-04-20 16:57:00,15.08852988,0.0001761,53.217,222.6978,69.7588,290.3593,0.00019642,2.84e-05,0.0,0 STARLINK-5269,1 54161U 22141E   24111.70625365  .00002840  00000-0  19642-3 0  9999,2 54161  53.2170 222.6978 0001761  69.7588 290.3593 15.08852988 81858,6917.841,95.437,540.924,538.487,0.0
54161.0,STARLINK-5269,PAYLOAD,2024-04-21 13:37:01,15.08829531,0.0001728,53.2176,218.8339,105.6768,254.4414,-0.0001704,-2.998e-05,0.0,0 STARLINK-5269,1 54161U 22141E   24112.56738275 -.00002998  00000-0 -17040-3 0  9995,2 54161  53.2176 218.8339 0001728 105.6768 254.4414 15.08829531 81980,6917.912,95.438,540.973,538.582,0.0
54161.0,STARLINK-5269,PAYLOAD,2024-04-21 16:47:48,15.08831764,0.0001696,53.2174,218.2376,106.5592,253.5586,-0.0001243,-2.265e-05,0.0,0 STARLINK-5269,1 54161U 22141E   24112.69986217 -.00002265  00000-0 -12430-3 0  9995,2 54161  53.2174 218.2376 0001696 106.5592 253.5586 15.08831764 82007,6917.906,95.438,540.944,538.597,0.0
54161.0,STARLINK-5269,PAYLOAD,2024-04-22 10:17:02,15.0883539,0.000157,53.2161,214.9658,105.5135,254.603,-1.1266e-05,-4.67e-06,0.0,0 STARLINK-5269,1 54161U 22141E   24113.42850329 -.00000467  00000-0 -11266-4 0  9990,2 54161  53.2161 214.9658 0001570 105.5135 254.6030 15.08835390 82119,6917.894,95.438,540.846,538.673,0.0
54161.0,STARLINK-5269,PAYLOAD,2024-04-22 11:52:25,15.08838022,0.0001708,53.2165,214.6684,108.5137,251.604,9.2178e-06,-1.41e-06,0.0,0 STARLINK-5269,1 54161U 22141E   24113.49474211 -.00000141  00000-0  92178-5 0  9999,2 54161  53.2165 214.6684 0001708 108.5137 251.6040 15.08838022 82121,6917.886,95.438,540.933,538.57,0.0
54161.0,STARLINK-5269,PAYLOAD,2024-04-23 11:43:13,15.08832668,0.0001832,53.2177,210.2101,120.4762,239.6411,0.00023899,3.517e-05,0.0,0 STARLINK-5269,1 54161U 22141E   24114.48834833  .00003517  00000-0  23899-3 0  9990,2 54161  53.2177 210.2101 0001832 120.4762 239.6411 15.08832668 82279,6917.903,95.438,541.035,538.5,0.0
54161.0,STARLINK-5269,PAYLOAD,2024-04-23 13:18:36,15.08831086,0.0001556,53.2173,209.9141,107.9949,252.1213,0.00021467,3.129e-05,0.0,0 STARLINK-5269,1 54161U 22141E   24114.55459031  .00003129  00000-0  21467-3 0  9999,2 54161  53.2173 209.9141 0001556 107.9949 252.1213 15.08831086 82288,6917.908,95.438,540.849,538.696,0.0
54161.0,STARLINK-5269,PAYLOAD,2024-04-24 13:09:23,15.0883816,0.0001428,53.2168,205.4525,121.5334,238.5797,8.6992e-05,1.097e-05,0.0,0 STARLINK-5269,1 54161U 22141E   24115.54818625  .00001097  00000-0  86992-4 0  9994,2 54161  53.2168 205.4525 0001428 121.5334 238.5797 15.08838160 82439,6917.886,95.438,540.739,538.763,0.0
54161.0,STARLINK-5269,PAYLOAD,2024-04-25 13:00:10,15.08838531,0.0001053,53.2174,200.9962,96.8973,263.2139,0.0001344,1.852e-05,0.0,0 STARLINK-5269,1 54161U 22141E   24116.54178788  .00001852  00000-0  13440-3 0  9990,2 54161  53.2174 200.9962 0001053  96.8973 263.2139 15.08838531 82581,6917.885,95.438,540.478,539.021,0.0
54161.0,STARLINK-5269,PAYLOAD,2024-04-26 12:50:57,15.08831307,0.0001108,53.218,196.5357,95.0138,265.098,0.00018661,2.683e-05,0.0,0 STARLINK-5269,1 54161U 22141E   24117.53539209  .00002683  00000-0  18661-3 0  9992,2 54161  53.2180 196.5357 0001108  95.0138 265.0980 15.08831307 82736,6917.907,95.438,540.538,539.005,0.0
54161.0,STARLINK-5269,PAYLOAD,2024-04-26 22:23:15,15.0884977,0.000119,53.2176,194.7497,86.2408,273.872,0.00013427,1.85e-05,0.0,0 STARLINK-5269,1 54161U 22141E   24117.93282068  .00001850  00000-0  13427-3 0  9994,2 54161  53.2176 194.7497 0001190  86.2408 273.8720 15.08849770 82797,6917.851,95.437,540.539,538.892,0.0
